ONEWEB-0038             
1 45145U 20008Q   23327.61317907 -.00000389  00000+0 -11338-2 0  9999
2 45145  87.8999 207.1535 0001199  41.4888 318.6331 13.11413622187574
ONEWEB-0039             
1 45146U 20008R   23327.22527185  .00000120  00000+0  30714-3 0  9999
2 45146  87.8928 222.3460 0001915  60.2921 299.8397 13.10375477185457
ONEWEB-0040             
1 45147U 20008S   23327.21876626 -.00000209  00000+0 -63617-3 0  9994
2 45147  87.8934 222.3357 0001581  69.5630 290.5667 13.10375573185150
ONEWEB-0043             
1 45149U 20008U   23327.22037332 -.00000506  00000+0 -14850-2 0  9994
2 45149  87.8928 222.3532 0001951  58.4600 301.6718 13.10373985185476
ONEWEB-0044             
1 45150U 20008V   23327.24965533  .00000684  00000+0  19228-2 0  9990
2 45150  87.8920 222.3454 0001821  62.4384 297.6928 13.10373612185770
ONEWEB-0045             
1 45151U 20008W   23327.23818350 -.00000537  00000+0 -15513-2 0  9996
2 45151  87.8984 207.2164 0001542  78.0154 282.1146 13.11415160187600
ONEWEB-0047             
1 45152U 20008X   23327.24153284  .00000775  00000+0  21840-2 0  9998
2 45152  87.8922 222.3482 0001714  70.1508 289.9804 13.10374451185498
ONEWEB-0048             
1 45153U 20008Y   23327.23665280  .00000664  00000+0  18655-2 0  9999
2 45153  87.8927 222.3603 0001686  69.4968 290.6340 13.10373820185109
ONEWEB-0049             
1 45154U 20008Z   23327.23826910  .00000671  00000+0  18863-2 0  9998
2 45154  87.8931 222.3317 0001801  70.8497 289.2825 13.10374339185321
ONEWEB-0051             
1 45155U 20008AA  23327.23656913 -.00000462  00000+0 -13398-2 0  9991
2 45155  87.8995 207.2533 0001462  82.8832 277.2462 13.11418770188284
ONEWEB-0052             
1 45156U 20008AB  23327.23500654  .00000587  00000+0  16449-2 0  9998
2 45156  87.8934 222.3167 0002412  66.8906 293.2475 13.10382193185231
ONEWEB-0053             
1 45157U 20008AC  23327.21712604 -.00000345  00000+0 -10247-2 0  9991
2 45157  87.8928 222.3704 0001726  69.7200 290.4113 13.10375914185206
ONEWEB-0054             
1 45158U 20008AD  23327.25288383  .00000530  00000+0  14828-2 0  9991
2 45158  87.8920 222.3494 0001657  73.1213 287.0096 13.10371996185322
ONEWEB-0056             
1 45159U 20008AE  23327.23338284  .00000539  00000+0  15086-2 0  9992
2 45159  87.8925 222.3481 0001702  66.7863 293.3443 13.10377577185477
ONEWEB-0057             
1 45160U 20008AF  23327.23990578  .00000743  00000+0  20912-2 0  9995
2 45160  87.8926 222.3415 0001636  65.0247 295.1050 13.10374417185644
ONEWEB-0058             
1 45161U 20008AG  23327.60879938 -.00000394  00000+0 -11656-2 0  9992
2 45161  87.8935 222.3152 0001568  71.4272 288.7025 13.10375364185761
ONEWEB-0059             
1 45162U 20008AH  23327.22364603  .00000043  00000+0  85620-4 0  9992
2 45162  87.8931 222.3624 0001452  72.5768 287.5518 13.10376789185616
