[{"OBJECT_NAME":"ONEWEB-0038","OBJECT_ID":"2020-008Q","EPOCH":"2023-11-23T14:42:58.671648","MEAN_MOTION":13.11413622,"ECCENTRICITY":0.0001199,"INCLINATION":87.8999,"RA_OF_ASC_NODE":207.1535,"ARG_OF_PERICENTER":41.4888,"MEAN_ANOMALY":318.6331,"EPHEMERIS_TYPE":0,"CLASSIFICATION_TYPE":"U","NORAD_CAT_ID":45145,"ELEMENT_SET_NO":999,"REV_AT_EPOCH":18757,"BSTAR":-0.0011338,"MEAN_MOTION_DOT":-3.89e-6,"MEAN_MOTION_DDOT":0},{"OBJECT_NAME":"ONEWEB-0039","OBJECT_ID":"2020-008R","EPOCH":"2023-11-23T05:24:23.487840","MEAN_MOTION":13.10375477,"ECCENTRICITY":0.0001915,"INCLINATION":87.8928,"RA_OF_ASC_NODE":222.346,"ARG_OF_PERICENTER":60.2921,"MEAN_ANOMALY":299.8397,"EPHEMERIS_TYPE":0,"CLASSIFICATION_TYPE":"U","NORAD_CAT_ID":45146,"ELEMENT_SET_NO":999,"REV_AT_EPOCH":18545,"BSTAR":0.00030714,"MEAN_MOTION_DOT":1.2e-6,"MEAN_MOTION_DDOT":0},{"OBJECT_NAME":"ONEWEB-0040","OBJECT_ID":"2020-008S","EPOCH":"2023-11-23T05:15:01.404864","MEAN_MOTION":13.10375573,"ECCENTRICITY":0.0001581,"INCLINATION":87.8934,"RA_OF_ASC_NODE":222.3357,"ARG_OF_PERICENTER":69.563,"MEAN_ANOMALY":290.5667,"EPHEMERIS_TYPE":0,"CLASSIFICATION_TYPE":"U","NORAD_CAT_ID":45147,"ELEMENT_SET_NO":999,"REV_AT_EPOCH":18515,"BSTAR":-0.00063617,"MEAN_MOTION_DOT":-2.09e-6,"MEAN_MOTION_DDOT":0},{"OBJECT_NAME":"ONEWEB-0043","OBJECT_ID":"2020-008U","EPOCH":"2023-11-23T05:17:20.254848","MEAN_MOTION":13.10373985,"ECCENTRICITY":0.0001951,"INCLINATION":87.8928,"RA_OF_ASC_NODE":222.3532,"ARG_OF_PERICENTER":58.46,"MEAN_ANOMALY":301.6718,"EPHEMERIS_TYPE":0,"CLASSIFICATION_TYPE":"U","NORAD_CAT_ID":45149,"ELEMENT_SET_NO":999,"REV_AT_EPOCH":18547,"BSTAR":-0.001485,"MEAN_MOTION_DOT":-5.06e-6,"MEAN_MOTION_DDOT":0},{"OBJECT_NAME":"ONEWEB-0044","OBJECT_ID":"2020-008V","EPOCH":"2023-11-23T05:59:30.220512","MEAN_MOTION":13.10373612,"ECCENTRICITY":0.0001821,"INCLINATION":87.892,"RA_OF_ASC_NODE":222.3454,"ARG_OF_PERICENTER":62.4384,"MEAN_ANOMALY":297.6928,"EPHEMERIS_TYPE":0,"CLASSIFICATION_TYPE":"U","NORAD_CAT_ID":45150,"ELEMENT_SET_NO":999,"REV_AT_EPOCH":18577,"BSTAR":0.0019228,"MEAN_MOTION_DOT":6.84e-6,"MEAN_MOTION_DDOT":0},{"OBJECT_NAME":"ONEWEB-0045","OBJECT_ID":"2020-008W","EPOCH":"2023-11-23T05:42:59.054400","MEAN_MOTION":13.1141516,"ECCENTRICITY":0.0001542,"INCLINATION":87.8984,"RA_OF_ASC_NODE":207.2164,"ARG_OF_PERICENTER":78.0154,"MEAN_ANOMALY":282.1146,"EPHEMERIS_TYPE":0,"CLASSIFICATION_TYPE":"U","NORAD_CAT_ID":45151,"ELEMENT_SET_NO":999,"REV_AT_EPOCH":18760,"BSTAR":-0.0015513,"MEAN_MOTION_DOT":-5.37e-6,"MEAN_MOTION_DDOT":0},{"OBJECT_NAME":"ONEWEB-0047","OBJECT_ID":"2020-008X","EPOCH":"2023-11-23T05:47:48.437376","MEAN_MOTION":13.10374451,"ECCENTRICITY":0.0001714,"INCLINATION":87.8922,"RA_OF_ASC_NODE":222.3482,"ARG_OF_PERICENTER":70.1508,"MEAN_ANOMALY":289.9804,"EPHEMERIS_TYPE":0,"CLASSIFICATION_TYPE":"U","NORAD_CAT_ID":45152,"ELEMENT_SET_NO":999,"REV_AT_EPOCH":18549,"BSTAR":0.002184,"MEAN_MOTION_DOT":7.75e-6,"MEAN_MOTION_DDOT":0},{"OBJECT_NAME":"ONEWEB-0048","OBJECT_ID":"2020-008Y","EPOCH":"2023-11-23T05:40:46.801920","MEAN_MOTION":13.1037382,"ECCENTRICITY":0.0001686,"INCLINATION":87.8927,"RA_OF_ASC_NODE":222.3603,"ARG_OF_PERICENTER":69.4968,"MEAN_ANOMALY":290.634,"EPHEMERIS_TYPE":0,"CLASSIFICATION_TYPE":"U","NORAD_CAT_ID":45153,"ELEMENT_SET_NO":999,"REV_AT_EPOCH":18510,"BSTAR":0.0018655,"MEAN_MOTION_DOT":6.64e-6,"MEAN_MOTION_DDOT":0},{"OBJECT_NAME":"ONEWEB-0049","OBJECT_ID":"2020-008Z","EPOCH":"2023-11-23T05:43:06.450240","MEAN_MOTION":13.10374339,"ECCENTRICITY":0.0001801,"INCLINATION":87.8931,"RA_OF_ASC_NODE":222.3317,"ARG_OF_PERICENTER":70.8497,"MEAN_ANOMALY":289.2825,"EPHEMERIS_TYPE":0,"CLASSIFICATION_TYPE":"U","NORAD_CAT_ID":45154,"ELEMENT_SET_NO":999,"REV_AT_EPOCH":18532,"BSTAR":0.0018863,"MEAN_MOTION_DOT":6.71e-6,"MEAN_MOTION_DDOT":0},{"OBJECT_NAME":"ONEWEB-0051","OBJECT_ID":"2020-008AA","EPOCH":"2023-11-23T05:40:39.572832","MEAN_MOTION":13.1141877,"ECCENTRICITY":0.0001462,"INCLINATION":87.8995,"RA_OF_ASC_NODE":207.2533,"ARG_OF_PERICENTER":82.8832,"MEAN_ANOMALY":277.2462,"EPHEMERIS_TYPE":0,"CLASSIFICATION_TYPE":"U","NORAD_CAT_ID":45155,"ELEMENT_SET_NO":999,"REV_AT_EPOCH":18828,"BSTAR":-0.0013398,"MEAN_MOTION_DOT":-4.62e-6,"MEAN_MOTION_DDOT":0},{"OBJECT_NAME":"ONEWEB-0052","OBJECT_ID":"2020-008AB","EPOCH":"2023-11-23T05:38:24.565056","MEAN_MOTION":13.10382193,"ECCENTRICITY":0.0002412,"INCLINATION":87.8934,"RA_OF_ASC_NODE":222.3167,"ARG_OF_PERICENTER":66.8906,"MEAN_ANOMALY":293.2475,"EPHEMERIS_TYPE":0,"CLASSIFICATION_TYPE":"U","NORAD_CAT_ID":45156,"ELEMENT_SET_NO":999,"REV_AT_EPOCH":18523,"BSTAR":0.0016449,"MEAN_MOTION_DOT":5.87e-6,"MEAN_MOTION_DDOT":0},{"OBJECT_NAME":"ONEWEB-0053","OBJECT_ID":"2020-008AC","EPOCH":"2023-11-23T05:12:39.689856","MEAN_MOTION":13.10375914,"ECCENTRICITY":0.0001726,"INCLINATION":87.8928,"RA_OF_ASC_NODE":222.3704,"ARG_OF_PERICENTER":69.72,"MEAN_ANOMALY":290.4113,"EPHEMERIS_TYPE":0,"CLASSIFICATION_TYPE":"U","NORAD_CAT_ID":45157,"ELEMENT_SET_NO":999,"REV_AT_EPOCH":18520,"BSTAR":-0.0010247,"MEAN_MOTION_DOT":-3.45e-6,"MEAN_MOTION_DDOT":0},{"OBJECT_NAME":"ONEWEB-0054","OBJECT_ID":"2020-008AD","EPOCH":"2023-11-23T06:04:09.162912","MEAN_MOTION":13.10371996,"ECCENTRICITY":0.0001657,"INCLINATION":87.892,"RA_OF_ASC_NODE":222.3494,"ARG_OF_PERICENTER":73.1213,"MEAN_ANOMALY":287.0096,"EPHEMERIS_TYPE":0,"CLASSIFICATION_TYPE":"U","NORAD_CAT_ID":45158,"ELEMENT_SET_NO":999,"REV_AT_EPOCH":18532,"BSTAR":0.0014828,"MEAN_MOTION_DOT":5.3e-6,"MEAN_MOTION_DDOT":0},{"OBJECT_NAME":"ONEWEB-0056","OBJECT_ID":"2020-008AE","EPOCH":"2023-11-23T05:36:04.277376","MEAN_MOTION":13.10377577,"ECCENTRICITY":0.0001702,"INCLINATION":87.8925,"RA_OF_ASC_NODE":222.3481,"ARG_OF_PERICENTER":66.7863,"MEAN_ANOMALY":293.3443,"EPHEMERIS_TYPE":0,"CLASSIFICATION_TYPE":"U","NORAD_CAT_ID":45159,"ELEMENT_SET_NO":999,"REV_AT_EPOCH":18547,"BSTAR":0.0015086,"MEAN_MOTION_DOT":5.39e-6,"MEAN_MOTION_DDOT":0},{"OBJECT_NAME":"ONEWEB-0057","OBJECT_ID":"2020-008AF","EPOCH":"2023-11-23T05:45:27.859392","MEAN_MOTION":13.10374417,"ECCENTRICITY":0.0001636,"INCLINATION":87.8926,"RA_OF_ASC_NODE":222.3415,"ARG_OF_PERICENTER":65.0247,"MEAN_ANOMALY":295.105,"EPHEMERIS_TYPE":0,"CLASSIFICATION_TYPE":"U","NORAD_CAT_ID":45160,"ELEMENT_SET_NO":999,"REV_AT_EPOCH":18564,"BSTAR":0.0020912,"MEAN_MOTION_DOT":7.43e-6,"MEAN_MOTION_DDOT":0},{"OBJECT_NAME":"ONEWEB-0058","OBJECT_ID":"2020-008AG","EPOCH":"2023-11-23T14:36:40.266432","MEAN_MOTION":13.10375364,"ECCENTRICITY":0.0001568,"INCLINATION":87.8935,"RA_OF_ASC_NODE":222.3152,"ARG_OF_PERICENTER":71.4272,"MEAN_ANOMALY":288.7025,"EPHEMERIS_TYPE":0,"CLASSIFICATION_TYPE":"U","NORAD_CAT_ID":45161,"ELEMENT_SET_NO":999,"REV_AT_EPOCH":18576,"BSTAR":-0.0011656,"MEAN_MOTION_DOT":-3.94e-6,"MEAN_MOTION_DDOT":0},{"OBJECT_NAME":"ONEWEB-0059","OBJECT_ID":"2020-008AH","EPOCH":"2023-11-23T05:22:03.016992","MEAN_MOTION":13.10376789,"ECCENTRICITY":0.0001452,"INCLINATION":87.8931,"RA_OF_ASC_NODE":222.3624,"ARG_OF_PERICENTER":72.5768,"MEAN_ANOMALY":287.5518,"EPHEMERIS_TYPE":0,"CLASSIFICATION_TYPE":"U","NORAD_CAT_ID":45162,"ELEMENT_SET_NO":999,"REV_AT_EPOCH":18561,"BSTAR":8.562e-5,"MEAN_MOTION_DOT":4.3e-7,"MEAN_MOTION_DDOT":0}]
